{
  "norad_id": 41849,
  "name": "RAVAN",
  "history": [
    {
      "epoch": "2026-03-28T22:04:12.054144Z",
      "apogee_km": 426.231572560082,
      "perigee_km": 420.3696855251146,
      "latitude_deg": 8.802326962010909e-06,
      "longitude_deg": 171.26005392497024,
      "height_km": 425.6187076897912,
      "semi_major_axis_km": 6801.437629042598,
      "eccentricity": 0.00043093,
      "inclination_deg": 98.0014,
      "raan_deg": 328.6434,
      "arg_perigee_deg": 285.7721,
      "mean_anomaly_deg": 74.3052,
      "mean_motion_rev_day": 15.47753099
    },
    {
      "epoch": "2026-03-29T04:16:35.311008Z",
      "apogee_km": 426.11625724663463,
      "perigee_km": 420.28343076921465,
      "latitude_deg": 1.4126165934069717e-05,
      "longitude_deg": 78.19425937505635,
      "height_km": 425.59810215191914,
      "semi_major_axis_km": 6801.336844007925,
      "eccentricity": 0.0004288,
      "inclination_deg": 98.0014,
      "raan_deg": 328.9294,
      "arg_perigee_deg": 284.2231,
      "mean_anomaly_deg": 75.8541,
      "mean_motion_rev_day": 15.47787502
    },
    {
      "epoch": "2026-03-30T05:06:04.432320Z",
      "apogee_km": 425.7851569433451,
      "perigee_km": 419.9765436177777,
      "latitude_deg": 5.465837672608354e-05,
      "longitude_deg": 65.94739907414885,
      "height_km": 425.5609329968084,
      "semi_major_axis_km": 6801.017850280561,
      "eccentricity": 0.00042704,
      "inclination_deg": 98.0011,
      "raan_deg": 330.0734,
      "arg_perigee_deg": 278.6142,
      "mean_anomaly_deg": 81.4623,
      "mean_motion_rev_day": 15.47896399
    },
    {
      "epoch": "2026-03-30T14:24:36.156672Z",
      "apogee_km": 425.6500023282606,
      "perigee_km": 419.858907236684,
      "latitude_deg": 6.055997895469211e-05,
      "longitude_deg": -73.63818543995984,
      "height_km": 425.5518903336192,
      "semi_major_axis_km": 6800.8914547824725,
      "eccentricity": 0.00042576,
      "inclination_deg": 98.001,
      "raan_deg": 330.5023,
      "arg_perigee_deg": 276.3002,
      "mean_anomaly_deg": 83.7762,
      "mean_motion_rev_day": 15.47939551
    },
    {
      "epoch": "2026-03-30T22:10:01.878240Z",
      "apogee_km": 425.52582471815094,
      "perigee_km": 419.78065314010837,
      "latitude_deg": 2.1862752928622687e-05,
      "longitude_deg": 170.04387252241165,
      "height_km": 425.54751428605965,
      "semi_major_axis_km": 6800.790238929129,
      "eccentricity": 0.00042239,
      "inclination_deg": 98.0009,
      "raan_deg": 330.8601,
      "arg_perigee_deg": 274.4117,
      "mean_anomaly_deg": 85.6649,
      "mean_motion_rev_day": 15.47974108
    },
    {
      "epoch": "2026-03-31T13:40:51.593376Z",
      "apogee_km": 425.3193603646969,
      "perigee_km": 419.61501357266843,
      "latitude_deg": 1.4536521210077303e-05,
      "longitude_deg": -62.5857014923377,
      "height_km": 425.57981095946093,
      "semi_major_axis_km": 6800.604186968682,
      "eccentricity": 0.0004194,
      "inclination_deg": 98.0004,
      "raan_deg": 331.5748,
      "arg_perigee_deg": 270.0553,
      "mean_anomaly_deg": 90.0215,
      "mean_motion_rev_day": 15.48037633
    },
    {
      "epoch": "2026-04-01T05:11:39.019776Z",
      "apogee_km": 425.1534261851666,
      "perigee_km": 419.41387115768794,
      "latitude_deg": -2.6477575939969745e-05,
      "longitude_deg": 64.79499169275596,
      "height_km": 425.50588745275576,
      "semi_major_axis_km": 6800.420648671427,
      "eccentricity": 0.000422,
      "inclination_deg": 98.0003,
      "raan_deg": 332.2902,
      "arg_perigee_deg": 267.8687,
      "mean_anomaly_deg": 92.2078,
      "mean_motion_rev_day": 15.48100304
    },
    {
      "epoch": "2026-04-02T13:46:11.066016Z",
      "apogee_km": 424.7061093179391,
      "perigee_km": 419.00893790616556,
      "latitude_deg": 4.7822188776392126e-05,
      "longitude_deg": -63.67497438084932,
      "height_km": 425.4541355857393,
      "semi_major_axis_km": 6799.994523612052,
      "eccentricity": 0.00041891,
      "inclination_deg": 97.9997,
      "raan_deg": 333.7916,
      "arg_perigee_deg": 260.281,
      "mean_anomaly_deg": 99.7966,
      "mean_motion_rev_day": 15.48245825
    }
  ]
}